{
  "links" : {
    "next" : "https://api.nasa.gov/neo/rest/v1/feed?start_date=2007-02-23&end_date=2007-02-23&detailed=true&api_key=t0TVs3DtDT2H8Oy2Zy8m2eVrNsAVKAexjcZXUckd",
    "prev" : "https://api.nasa.gov/neo/rest/v1/feed?start_date=2007-02-21&end_date=2007-02-21&detailed=true&api_key=t0TVs3DtDT2H8Oy2Zy8m2eVrNsAVKAexjcZXUckd",
    "self" : "https://api.nasa.gov/neo/rest/v1/feed?start_date=2007-02-22&end_date=2007-02-22&detailed=true&api_key=t0TVs3DtDT2H8Oy2Zy8m2eVrNsAVKAexjcZXUckd"
  },
  "element_count" : 2,
  "near_earth_objects" : {
    "2007-02-22" : [ {
      "links" : {
        "self" : "https://api.nasa.gov/neo/rest/v1/neo/2164342?api_key=t0TVs3DtDT2H8Oy2Zy8m2eVrNsAVKAexjcZXUckd"
      },
      "neo_reference_id" : "2164342",
      "name" : "164342 (2005 CP)",
      "nasa_jpl_url" : "http://ssd.jpl.nasa.gov/sbdb.cgi?sstr=2164342",
      "absolute_magnitude_h" : 20.8,
      "estimated_diameter" : {
        "kilometers" : {
          "estimated_diameter_min" : 0.1838886721,
          "estimated_diameter_max" : 0.411187571
        },
        "meters" : {
          "estimated_diameter_min" : 183.8886720703,
          "estimated_diameter_max" : 411.1875710413
        },
        "miles" : {
          "estimated_diameter_min" : 0.1142630881,
          "estimated_diameter_max" : 0.2555000322
        },
        "feet" : {
          "estimated_diameter_min" : 603.309310875,
          "estimated_diameter_max" : 1349.040630575
        }
      },
      "is_potentially_hazardous_asteroid" : false,
      "close_approach_data" : [ {
        "close_approach_date" : "2007-02-22",
        "epoch_date_close_approach" : 1172131200000,
        "relative_velocity" : {
          "kilometers_per_second" : "16.121100475",
          "kilometers_per_hour" : "58035.9617099784",
          "miles_per_hour" : "36061.2896525141"
        },
        "miss_distance" : {
          "astronomical" : "0.2618834432",
          "lunar" : "101.8726577759",
          "kilometers" : "39177204",
          "miles" : "24343586"
        },
        "orbiting_body" : "Earth"
      } ],
      "orbital_data" : {
        "orbit_id" : "27",
        "orbit_determination_date" : "2017-04-06 09:26:05",
        "orbit_uncertainty" : "1",
        "minimum_orbit_intersection" : ".177699",
        "jupiter_tisserand_invariant" : "4.282",
        "epoch_osculation" : "2458000.5",
        "eccentricity" : ".3610775909882458",
        "semi_major_axis" : "1.569878951794939",
        "inclination" : "19.16980817782769",
        "ascending_node_longitude" : "138.9620088225975",
        "orbital_period" : "718.4518656703493",
        "perihelion_distance" : "1.00303084173767",
        "perihelion_argument" : "72.93106419687734",
        "aphelion_distance" : "2.136727061852208",
        "perihelion_time" : "2457789.956084882600",
        "mean_anomaly" : "105.4987996607719",
        "mean_motion" : ".501077409916812",
        "equinox" : "J2000"
      }
    }, {
      "links" : {
        "self" : "https://api.nasa.gov/neo/rest/v1/neo/3150194?api_key=t0TVs3DtDT2H8Oy2Zy8m2eVrNsAVKAexjcZXUckd"
      },
      "neo_reference_id" : "3150194",
      "name" : "(2003 DZ15)",
      "nasa_jpl_url" : "http://ssd.jpl.nasa.gov/sbdb.cgi?sstr=3150194",
      "absolute_magnitude_h" : 22.3,
      "estimated_diameter" : {
        "kilometers" : {
          "estimated_diameter_min" : 0.0921626549,
          "estimated_diameter_max" : 0.2060819612
        },
        "meters" : {
          "estimated_diameter_min" : 92.1626548503,
          "estimated_diameter_max" : 206.0819612321
        },
        "miles" : {
          "estimated_diameter_min" : 0.057267201,
          "estimated_diameter_max" : 0.1280533543
        },
        "feet" : {
          "estimated_diameter_min" : 302.370924539,
          "estimated_diameter_max" : 676.1219416887
        }
      },
      "is_potentially_hazardous_asteroid" : false,
      "close_approach_data" : [ {
        "close_approach_date" : "2007-02-22",
        "epoch_date_close_approach" : 1172131200000,
        "relative_velocity" : {
          "kilometers_per_second" : "21.7479984772",
          "kilometers_per_hour" : "78292.7945180662",
          "miles_per_hour" : "48648.0977937395"
        },
        "miss_distance" : {
          "astronomical" : "0.2308540967",
          "lunar" : "89.8022460938",
          "kilometers" : "34535280",
          "miles" : "21459228"
        },
        "orbiting_body" : "Earth"
      } ],
      "orbital_data" : {
        "orbit_id" : "38",
        "orbit_determination_date" : "2017-09-13 06:17:48",
        "orbit_uncertainty" : "0",
        "minimum_orbit_intersection" : "8.85451E-5",
        "jupiter_tisserand_invariant" : "5.104",
        "epoch_osculation" : "2458000.5",
        "eccentricity" : ".4871067341030935",
        "semi_major_axis" : "1.221466820941592",
        "inclination" : "3.67506016112787",
        "ascending_node_longitude" : "141.8682900042501",
        "orbital_period" : "493.0840322018703",
        "perihelion_distance" : ".626482106977445",
        "perihelion_argument" : "263.6447070248282",
        "aphelion_distance" : "1.816451534905739",
        "perihelion_time" : "2458042.046884570743",
        "mean_anomaly" : "329.6666745043894",
        "mean_motion" : ".7300986778915095",
        "equinox" : "J2000"
      }
    } ]
  }
}